<?xml version="1.0"?>
<osm version="0.6" generator="uvmogr2osm" upload="false">
<node id="-2" lat="44.674143096" lon="-93.166087011" visible="true"/>
<node id="-3" lat="44.674098077" lon="-93.166031452" visible="true"/>
<node id="-4" lat="44.674033818" lon="-93.166133724" visible="true"/>
<node id="-5" lat="44.674060799" lon="-93.166165695" visible="true"/>
<node id="-6" lat="44.674071397" lon="-93.166178252" visible="true"/>
<node id="-7" lat="44.674098786" lon="-93.166210707" visible="true"/>
<node id="-8" lat="44.674071629" lon="-93.166253927" visible="true"/>
<node id="-9" lat="44.674113112" lon="-93.16630399" visible="true"/>
<node id="-10" lat="44.674133183" lon="-93.166327631" visible="true"/>
<node id="-11" lat="44.674144179" lon="-93.166310131" visible="true"/>
<node id="-12" lat="44.674184943" lon="-93.166241195" visible="true"/>
<node id="-13" lat="44.674165949" lon="-93.166213175" visible="true"/>
<node id="-14" lat="44.674194259" lon="-93.16616765" visible="true"/>
<node id="-16" lat="44.679399918" lon="-93.159026021" visible="true"/>
<node id="-17" lat="44.67930658" lon="-93.15902704" visible="true"/>
<node id="-18" lat="44.679306371" lon="-93.159130157" visible="true"/>
<node id="-19" lat="44.679267842" lon="-93.15912996" visible="true"/>
<node id="-20" lat="44.679267848" lon="-93.159265403" visible="true"/>
<node id="-21" lat="44.679356541" lon="-93.159264646" visible="true"/>
<node id="-22" lat="44.679356219" lon="-93.159216308" visible="true"/>
<node id="-23" lat="44.679400596" lon="-93.159216465" visible="true"/>
<node id="-25" lat="44.680449329" lon="-93.163892033" visible="true"/>
<node id="-26" lat="44.680396299" lon="-93.163884695" visible="true"/>
<node id="-27" lat="44.680396959" lon="-93.16387642" visible="true"/>
<node id="-28" lat="44.680334607" lon="-93.163869268" visible="true"/>
<node id="-29" lat="44.680325019" lon="-93.164043587" visible="true"/>
<node id="-30" lat="44.680468893" lon="-93.164056847" visible="true"/>
<node id="-31" lat="44.680477558" lon="-93.163896263" visible="true"/>
<node id="-33" lat="44.680643314" lon="-93.164236158" visible="true"/>
<node id="-34" lat="44.680612449" lon="-93.164302063" visible="true"/>
<node id="-35" lat="44.680574711" lon="-93.16426467" visible="true"/>
<node id="-36" lat="44.680507754" lon="-93.164399501" visible="true"/>
<node id="-37" lat="44.680597364" lon="-93.164486376" visible="true"/>
<node id="-38" lat="44.680699031" lon="-93.164289411" visible="true"/>
<node id="-40" lat="44.681352607" lon="-93.163221854" visible="true"/>
<node id="-41" lat="44.681328461" lon="-93.163221899" visible="true"/>
<node id="-42" lat="44.681328473" lon="-93.163254715" visible="true"/>
<node id="-43" lat="44.681352706" lon="-93.163255318" visible="true"/>
<node id="-45" lat="44.679366527" lon="-93.158764321" visible="true"/>
<node id="-46" lat="44.679366455" lon="-93.158753462" visible="true"/>
<node id="-47" lat="44.679330468" lon="-93.158753865" visible="true"/>
<node id="-48" lat="44.679330549" lon="-93.158744113" visible="true"/>
<node id="-49" lat="44.679269595" lon="-93.158744897" visible="true"/>
<node id="-50" lat="44.679266612" lon="-93.158787353" visible="true"/>
<node id="-51" lat="44.679264317" lon="-93.158878672" visible="true"/>
<node id="-52" lat="44.679300904" lon="-93.158878211" visible="true"/>
<node id="-53" lat="44.679303517" lon="-93.158906687" visible="true"/>
<node id="-54" lat="44.679306599" lon="-93.158964152" visible="true"/>
<node id="-55" lat="44.679407342" lon="-93.15896415" visible="true"/>
<node id="-56" lat="44.679410239" lon="-93.158918478" visible="true"/>
<node id="-57" lat="44.679413456" lon="-93.158763948" visible="true"/>
<node id="-59" lat="44.680049158" lon="-93.165304071" visible="true"/>
<node id="-60" lat="44.679942878" lon="-93.165393735" visible="true"/>
<node id="-61" lat="44.680021443" lon="-93.165572861" visible="true"/>
<node id="-62" lat="44.680064188" lon="-93.165538495" visible="true"/>
<node id="-63" lat="44.680060486" lon="-93.165530818" visible="true"/>
<node id="-64" lat="44.680094258" lon="-93.165500071" visible="true"/>
<node id="-65" lat="44.680122581" lon="-93.165471095" visible="true"/>
<node id="-67" lat="44.681102999" lon="-93.163888472" visible="true"/>
<node id="-68" lat="44.681099495" lon="-93.163945447" visible="true"/>
<node id="-69" lat="44.681065074" lon="-93.163941401" visible="true"/>
<node id="-70" lat="44.681060455" lon="-93.16402785" visible="true"/>
<node id="-71" lat="44.681059552" lon="-93.164066194" visible="true"/>
<node id="-72" lat="44.681126017" lon="-93.164076216" visible="true"/>
<node id="-73" lat="44.681126877" lon="-93.164052446" visible="true"/>
<node id="-74" lat="44.681199844" lon="-93.164064386" visible="true"/>
<node id="-75" lat="44.681212585" lon="-93.163904704" visible="true"/>
<way id="-1" visible="true"><nd ref="-2"/><nd ref="-3"/><nd ref="-4"/><nd ref="-5"/><nd ref="-6"/><nd ref="-7"/><nd ref="-8"/><nd ref="-9"/><nd ref="-10"/><nd ref="-11"/><nd ref="-12"/><nd ref="-13"/><nd ref="-14"/><nd ref="-2"/><tag k="building" v="house"/><tag k="addr:housenumber" v="19020"/><tag k="addr:city" v="Farmington"/><tag k="building:levels" v="2"/><tag k="addr:postcode" v="55024"/><tag k="source" v="DCGIS"/><tag k="addr:country" v="US"/><tag k="addr:street" v="Embers Avenue"/></way>
<way id="-15" visible="true"><nd ref="-16"/><nd ref="-17"/><nd ref="-18"/><nd ref="-19"/><nd ref="-20"/><nd ref="-21"/><nd ref="-22"/><nd ref="-23"/><nd ref="-16"/><tag k="building" v="house"/><tag k="addr:housenumber" v="18655"/><tag k="addr:city" v="Farmington"/><tag k="building:levels" v="2"/><tag k="addr:postcode" v="55024"/><tag k="source" v="DCGIS"/><tag k="addr:country" v="US"/><tag k="addr:street" v="Dulcimer Court"/></way>
<way id="-24" visible="true"><nd ref="-25"/><nd ref="-26"/><nd ref="-27"/><nd ref="-28"/><nd ref="-29"/><nd ref="-30"/><nd ref="-31"/><nd ref="-25"/><tag k="building" v="house"/><tag k="addr:housenumber" v="18605"/><tag k="addr:city" v="Farmington"/><tag k="building:levels" v="2"/><tag k="addr:postcode" v="55024"/><tag k="source" v="DCGIS"/><tag k="addr:country" v="US"/><tag k="addr:street" v="Dunbury Avenue"/></way>
<way id="-32" visible="true"><nd ref="-33"/><nd ref="-34"/><nd ref="-35"/><nd ref="-36"/><nd ref="-37"/><nd ref="-38"/><nd ref="-33"/><tag k="building" v="house"/><tag k="addr:housenumber" v="18616"/><tag k="addr:city" v="Farmington"/><tag k="building:levels" v="2"/><tag k="addr:postcode" v="55024"/><tag k="source" v="DCGIS"/><tag k="addr:country" v="US"/><tag k="addr:street" v="Dylan Drive"/></way>
<way id="-39" visible="true"><nd ref="-40"/><nd ref="-41"/><nd ref="-42"/><nd ref="-43"/><nd ref="-40"/><tag k="building" v="shed"/><tag k="source" v="DCGIS"/></way>
<way id="-44" visible="true"><nd ref="-45"/><nd ref="-46"/><nd ref="-47"/><nd ref="-48"/><nd ref="-49"/><nd ref="-50"/><nd ref="-51"/><nd ref="-52"/><nd ref="-53"/><nd ref="-54"/><nd ref="-55"/><nd ref="-56"/><nd ref="-57"/><nd ref="-45"/><tag k="building" v="house"/><tag k="addr:housenumber" v="18645"/><tag k="addr:city" v="Farmington"/><tag k="building:levels" v="2"/><tag k="addr:postcode" v="55024"/><tag k="source" v="DCGIS"/><tag k="addr:country" v="US"/><tag k="addr:street" v="Dulcimer Court"/></way>
<way id="-58" visible="true"><nd ref="-59"/><nd ref="-60"/><nd ref="-61"/><nd ref="-62"/><nd ref="-63"/><nd ref="-64"/><nd ref="-65"/><nd ref="-59"/><tag k="building" v="house"/><tag k="addr:housenumber" v="18652"/><tag k="addr:city" v="Farmington"/><tag k="building:levels" v="2"/><tag k="addr:postcode" v="55024"/><tag k="source" v="DCGIS"/><tag k="addr:country" v="US"/><tag k="addr:street" v="Dylan Drive"/></way>
<way id="-66" visible="true"><nd ref="-67"/><nd ref="-68"/><nd ref="-69"/><nd ref="-70"/><nd ref="-71"/><nd ref="-72"/><nd ref="-73"/><nd ref="-74"/><nd ref="-75"/><nd ref="-67"/><tag k="building" v="house"/><tag k="addr:housenumber" v="18603"/><tag k="addr:city" v="Farmington"/><tag k="building:levels" v="2"/><tag k="addr:postcode" v="55024"/><tag k="source" v="DCGIS"/><tag k="addr:country" v="US"/><tag k="addr:street" v="Dylan Drive"/></way>
</osm>