<?xml version="1.0"?>
<osm version="0.6" generator="uvmogr2osm" upload="false">
<node id="-2" lat="44.719892806" lon="-93.159942368" visible="true"/>
<node id="-3" lat="44.719730166" lon="-93.1600223" visible="true"/>
<node id="-4" lat="44.71975737" lon="-93.160131476" visible="true"/>
<node id="-5" lat="44.719816464" lon="-93.16010423" visible="true"/>
<node id="-6" lat="44.719824514" lon="-93.16013915" visible="true"/>
<node id="-7" lat="44.719925182" lon="-93.160092608" visible="true"/>
<node id="-9" lat="44.721825086" lon="-93.157396253" visible="true"/>
<node id="-10" lat="44.721769842" lon="-93.157398074" visible="true"/>
<node id="-11" lat="44.721768971" lon="-93.157365168" visible="true"/>
<node id="-12" lat="44.721671705" lon="-93.157368304" visible="true"/>
<node id="-13" lat="44.721675012" lon="-93.157565701" visible="true"/>
<node id="-14" lat="44.721683888" lon="-93.157565443" visible="true"/>
<node id="-15" lat="44.721684177" lon="-93.157589782" visible="true"/>
<node id="-16" lat="44.721761376" lon="-93.157588881" visible="true"/>
<node id="-17" lat="44.721761387" lon="-93.157561916" visible="true"/>
<node id="-18" lat="44.721826798" lon="-93.157560028" visible="true"/>
<node id="-20" lat="44.723259255" lon="-93.157406507" visible="true"/>
<node id="-21" lat="44.723221984" lon="-93.157407663" visible="true"/>
<node id="-22" lat="44.723221353" lon="-93.157365" visible="true"/>
<node id="-23" lat="44.723143558" lon="-93.157367602" visible="true"/>
<node id="-24" lat="44.723147814" lon="-93.157694413" visible="true"/>
<node id="-25" lat="44.723261948" lon="-93.157692041" visible="true"/>
<node id="-27" lat="44.72325811" lon="-93.158154488" visible="true"/>
<node id="-28" lat="44.723234712" lon="-93.158195357" visible="true"/>
<node id="-29" lat="44.723223665" lon="-93.158182199" visible="true"/>
<node id="-30" lat="44.723173082" lon="-93.158267861" visible="true"/>
<node id="-31" lat="44.723287621" lon="-93.158399982" visible="true"/>
<node id="-32" lat="44.723300265" lon="-93.158381413" visible="true"/>
<node id="-33" lat="44.723322078" lon="-93.158404368" visible="true"/>
<node id="-34" lat="44.723332293" lon="-93.158387907" visible="true"/>
<node id="-35" lat="44.723346896" lon="-93.15840614" visible="true"/>
<node id="-36" lat="44.723397454" lon="-93.158317596" visible="true"/>
<node id="-38" lat="44.723490936" lon="-93.158680948" visible="true"/>
<node id="-39" lat="44.723441041" lon="-93.158769302" visible="true"/>
<node id="-40" lat="44.723453815" lon="-93.158785712" visible="true"/>
<node id="-41" lat="44.723443499" lon="-93.158803165" visible="true"/>
<node id="-42" lat="44.723466829" lon="-93.158827399" visible="true"/>
<node id="-43" lat="44.723452102" lon="-93.158852497" visible="true"/>
<node id="-44" lat="44.723566814" lon="-93.158982199" visible="true"/>
<node id="-45" lat="44.723619431" lon="-93.158896758" visible="true"/>
<node id="-46" lat="44.723607447" lon="-93.158880373" visible="true"/>
<node id="-47" lat="44.723632763" lon="-93.158844803" visible="true"/>
<node id="-49" lat="44.724296232" lon="-93.159357178" visible="true"/>
<node id="-50" lat="44.724178258" lon="-93.159361036" visible="true"/>
<node id="-51" lat="44.724178798" lon="-93.159391785" visible="true"/>
<node id="-52" lat="44.724080088" lon="-93.159395736" visible="true"/>
<node id="-53" lat="44.724081913" lon="-93.159523585" visible="true"/>
<node id="-54" lat="44.724240846" lon="-93.15952782" visible="true"/>
<node id="-55" lat="44.724240275" lon="-93.159454432" visible="true"/>
<node id="-56" lat="44.724297791" lon="-93.159451847" visible="true"/>
<node id="-58" lat="44.724231066" lon="-93.159600761" visible="true"/>
<node id="-59" lat="44.724230681" lon="-93.159637562" visible="true"/>
<node id="-60" lat="44.724204029" lon="-93.159637565" visible="true"/>
<node id="-61" lat="44.724203143" lon="-93.159582706" visible="true"/>
<node id="-62" lat="44.72408504" lon="-93.159582829" visible="true"/>
<node id="-63" lat="44.724085561" lon="-93.159709337" visible="true"/>
<node id="-64" lat="44.724304534" lon="-93.159714067" visible="true"/>
<node id="-65" lat="44.72430475" lon="-93.159601391" visible="true"/>
<node id="-67" lat="44.724106826" lon="-93.160173931" visible="true"/>
<node id="-68" lat="44.724107496" lon="-93.16033041" visible="true"/>
<node id="-69" lat="44.72430926" lon="-93.160329265" visible="true"/>
<node id="-70" lat="44.724309189" lon="-93.160277598" visible="true"/>
<node id="-71" lat="44.724330627" lon="-93.16027797" visible="true"/>
<node id="-72" lat="44.724330776" lon="-93.160173202" visible="true"/>
<way id="-1" visible="true"><nd ref="-2"/><nd ref="-3"/><nd ref="-4"/><nd ref="-5"/><nd ref="-6"/><nd ref="-7"/><nd ref="-2"/><tag k="building" v="house"/><tag k="addr:housenumber" v="15798"/><tag k="addr:city" v="Apple Valley"/><tag k="building:levels" v="2"/><tag k="addr:postcode" v="55124"/><tag k="source" v="DCGIS"/><tag k="addr:country" v="US"/><tag k="addr:street" v="Cobblestone Lake Parkway"/></way>
<way id="-8" visible="true"><nd ref="-9"/><nd ref="-10"/><nd ref="-11"/><nd ref="-12"/><nd ref="-13"/><nd ref="-14"/><nd ref="-15"/><nd ref="-16"/><nd ref="-17"/><nd ref="-18"/><nd ref="-9"/><tag k="building" v="house"/><tag k="addr:housenumber" v="15698"/><tag k="addr:city" v="Apple Valley"/><tag k="building:levels" v="2"/><tag k="addr:postcode" v="55124"/><tag k="source" v="DCGIS"/><tag k="addr:country" v="US"/><tag k="addr:street" v="Duck Pond Way"/></way>
<way id="-19" visible="true"><nd ref="-20"/><nd ref="-21"/><nd ref="-22"/><nd ref="-23"/><nd ref="-24"/><nd ref="-25"/><nd ref="-20"/><tag k="building" v="house"/><tag k="addr:housenumber" v="15620"/><tag k="addr:city" v="Apple Valley"/><tag k="building:levels" v="1"/><tag k="addr:postcode" v="55124"/><tag k="source" v="DCGIS"/><tag k="addr:country" v="US"/><tag k="addr:street" v="Dunberry Way"/></way>
<way id="-26" visible="true"><nd ref="-27"/><nd ref="-28"/><nd ref="-29"/><nd ref="-30"/><nd ref="-31"/><nd ref="-32"/><nd ref="-33"/><nd ref="-34"/><nd ref="-35"/><nd ref="-36"/><nd ref="-27"/><tag k="building" v="house"/><tag k="addr:housenumber" v="15629"/><tag k="addr:city" v="Apple Valley"/><tag k="building:levels" v="1"/><tag k="addr:postcode" v="55124"/><tag k="source" v="DCGIS"/><tag k="addr:country" v="US"/><tag k="addr:street" v="Dunberry Way"/></way>
<way id="-37" visible="true"><nd ref="-38"/><nd ref="-39"/><nd ref="-40"/><nd ref="-41"/><nd ref="-42"/><nd ref="-43"/><nd ref="-44"/><nd ref="-45"/><nd ref="-46"/><nd ref="-47"/><nd ref="-38"/><tag k="building" v="house"/><tag k="addr:housenumber" v="15557"/><tag k="addr:city" v="Apple Valley"/><tag k="building:levels" v="1"/><tag k="addr:postcode" v="55124"/><tag k="source" v="DCGIS"/><tag k="addr:country" v="US"/><tag k="addr:street" v="Dunberry Way"/></way>
<way id="-48" visible="true"><nd ref="-49"/><nd ref="-50"/><nd ref="-51"/><nd ref="-52"/><nd ref="-53"/><nd ref="-54"/><nd ref="-55"/><nd ref="-56"/><nd ref="-49"/><tag k="building" v="house"/><tag k="source" v="DCGIS"/></way>
<way id="-57" visible="true"><nd ref="-58"/><nd ref="-59"/><nd ref="-60"/><nd ref="-61"/><nd ref="-62"/><nd ref="-63"/><nd ref="-64"/><nd ref="-65"/><nd ref="-58"/><tag k="building" v="house"/><tag k="addr:housenumber" v="15563"/><tag k="addr:city" v="Apple Valley"/><tag k="building:levels" v="2"/><tag k="addr:postcode" v="55124"/><tag k="source" v="DCGIS"/><tag k="addr:country" v="US"/><tag k="addr:street" v="Duck Trail Lane"/></way>
<way id="-66" visible="true"><nd ref="-67"/><nd ref="-68"/><nd ref="-69"/><nd ref="-70"/><nd ref="-71"/><nd ref="-72"/><nd ref="-67"/><tag k="building" v="house"/><tag k="addr:housenumber" v="15575"/><tag k="addr:city" v="Apple Valley"/><tag k="building:levels" v="1"/><tag k="addr:postcode" v="55124"/><tag k="source" v="DCGIS"/><tag k="addr:country" v="US"/><tag k="addr:street" v="Duck Trail Lane"/></way>
</osm>